[{"OBJECT_NAME":"TECHDEMOSAT-1 (TDS-1)","OBJECT_ID":"2014-037H","EPOCH":"2026-03-09T22:08:12.399936","MEAN_MOTION":15.11581991,"ECCENTRICITY":0.0004745,"INCLINATION":98.3776,"RA_OF_ASC_NODE":51.4583,"ARG_OF_PERICENTER":234.81,"MEAN_ANOMALY":125.2683,"EPHEMERIS_TYPE":0,"CLASSIFICATION_TYPE":"U","NORAD_CAT_ID":40076,"ELEMENT_SET_NO":999,"REV_AT_EPOCH":63322,"BSTAR":0.00065800271,"MEAN_MOTION_DOT":0.00011104,"MEAN_MOTION_DDOT":0},{"OBJECT_NAME":"STARLINK-4022","OBJECT_ID":"2022-052AH","EPOCH":"2026-03-09T20:10:38.545824","MEAN_MOTION":15.08836487,"ECCENTRICITY":0.00013469,"INCLINATION":53.2165,"RA_OF_ASC_NODE":268.4059,"ARG_OF_PERICENTER":90.3834,"MEAN_ANOMALY":269.7313,"EPHEMERIS_TYPE":0,"CLASSIFICATION_TYPE":"U","NORAD_CAT_ID":52629,"ELEMENT_SET_NO":999,"REV_AT_EPOCH":21101,"BSTAR":1.2753373e-5,"MEAN_MOTION_DOT":-8.5e-7,"MEAN_MOTION_DDOT":0}]
