TECHDEMOSAT-1 (TDS-1)   
1 40076U 14037H   26068.92236573  .00011104  00000+0  65800-3 0  9999
2 40076  98.3776  51.4583 0004745 234.8100 125.2683 15.11581991633227
STARLINK-4022           
1 52629U 22052AH  26068.84072391 -.00000085  00000+0  12753-4 0  9996
2 52629  53.2165 268.4059 0001346  90.3834 269.7313 15.08836487211019
